STARLINK-31069
1 58607U 23200U   26061.16668981  .02445719  00000+0  12793+0 0  9995
2 58607  43.0009 210.7735 0000946 302.9384 171.3778 15.11850552  5829
